SL-16 R/B               
1 23405U 94077B   26190.73309818 -.00000290  00000+0 -12372-3 0  9998
2 23405  70.9829  95.7312 0004058 307.6531  52.4223 14.15575812633504
ARIANE 40+ R/B          
1 23561U 95021B   26191.18813172  .00000136  00000+0  57137-4 0  9990
2 23561  98.4402 260.9298 0007751 129.3535 254.5926 14.39845904636870
SL-16 R/B               
1 23705U 95058B   26191.24062752 -.00000127  00000+0 -40523-4 0  9990
2 23705  71.0215 282.9575 0014608 289.2839  70.6704 14.15508118585199
SL-16 R/B               
1 24298U 96051B   26191.18930947  .00000131  00000+0  97553-4 0  9993
2 24298  70.7650 275.9704 0017400 304.6233  55.3245 14.12454537538948
ORBVIEW 2 (SEASTAR)     
1 24883U 97037A   26190.74182676  .00000148  00000+0  67593-4 0  9996
2 24883  98.8708 358.3882 0003226  71.7834 288.3701 14.35565113525989
SL-16 R/B               
1 25400U 98043G   26191.30600858  .00000011  00000+0  23448-4 0  9990
2 25400  98.8377 145.6657 0010299  25.0584 335.1093 14.26072264456467
SL-16 R/B               
1 25407U 98045B   26191.26206603 -.00000231  00000+0 -92462-4 0  9992
2 25407  71.0120 283.8029 0008430 213.5475 146.5115 14.16207072444459
ISS (ZARYA)             
1 25544U 98067A   26191.34711344  .00005681  00000+0  11131-3 0  9995
2 25544  51.6302 185.4700 0006687 278.6359  81.3872 15.48968037575345
CZ-4B R/B               
1 25732U 99025C   26191.05950940  .00000006  00000+0  23675-4 0  9997
2 25732  98.6473 232.3211 0036928 354.6614  33.4161 14.18287138405515
OKEAN-O                 
1 25860U 99039A   26191.59739231  .00000305  00000+0  46591-4 0  9995
2 25860  97.9304 250.1251 0000989  78.8596 281.2727 14.80494216452571
SL-16 R/B               
1 25861U 99039B   26191.12477792  .00000281  00000+0  42349-4 0  9996
2 25861  97.9825 249.9211 0013938 215.5721 144.4564 14.81867733454996
DELTA 2 R/B             
1 25876U 99041E   26191.32092388  .00001256  00000+0  24015-3 0  9993
2 25876  51.7613 171.3733 0501270 350.3651   8.7936 14.12071111380357
HELIOS 1B               
1 25977U 99064A   26191.44491530  .00000843  00000+0  98063-4 0  9991
2 25977  98.1592  97.2561 0002159  60.2045 299.9385 14.88067995703518
TERRA                   
1 25994U 99068A   26191.59111262  .00000205  00000+0  50692-4 0  9999
2 25994  97.9443 240.2080 0003222 131.9047  12.2545 14.61121418413025
SL-16 R/B               
1 26070U 00006B   26191.02662311 -.00000244  00000+0 -99655-4 0  9990
2 26070  71.0003 200.6011 0016978 347.2271  12.8419 14.15839536365874
TITAN 4B R/B            
1 26474U 00047B   26191.57100939  .00001522  00000+0  98853-4 0  9993
2 26474  67.9872  54.7470 0045944 263.3274  96.2645 15.10319441411461
ENVISAT                 
1 27386U 02009A   26191.34976940  .00000029  00000+0  23408-4 0  9999
2 27386  98.3846 142.1531 0001352  84.3059  63.5741 14.39070079276813
IDEFIX & ARIANE 42P R/B 
1 27422U 02021B   26191.27208050  .00000105  00000+0  56476-4 0  9992
2 27422  98.5942 128.5054 0011586 180.8092 179.3074 14.31092447261555
AQUA                    
1 27424U 02022A   26191.59355655  .00000438  00000+0  96743-4 0  9994
2 27424  98.4292 161.3464 0000810 105.1270 310.2303 14.62192929286693
CZ-4B R/B               
1 27432U 02024C   26191.59859418 -.00000005  00000+0  20325-4 0  9995
2 27432  98.8688 244.2653 0050714  34.9386 110.3090 14.14567773246611
MIDORI II (ADEOS-II)    
1 27597U 02056A   26191.30849168  .00000136  00000+0  71278-4 0  9999
2 27597  98.7892 150.7665 0001680  46.7248 313.4074 14.29361606227811
H-2A R/B                
1 27601U 02056E   26191.65555556  .00000127  00000+0  58694-4 0  9995
2 27601  98.3326 147.4762 0070626 154.3341 200.0518 14.33832351231726
CZ-4B R/B               
1 28059U 03049C   26190.99199359  .00000160  00000+0  48379-4 0  9993
2 28059  98.6906 190.7473 0047336 217.3645 142.4256 14.55113935204384
CZ-2C R/B               
1 28222U 04012C   26189.80327200  .00099446  00000+0  44522-3 0  9992
2 28222  97.7050 268.0571 0011127 210.2414 149.8213 15.83823781223316
SL-16 R/B               
1 28353U 04021B   26191.35481755  .00000168  00000+0  11210-3 0  9997
2 28353  71.0024 335.0662 0006435 229.1860 130.8705 14.14615417140180
CZ-4B R/B               
1 28415U 04035C   26191.07683070  .00005127  00000+0  17194-3 0  9991
2 28415  97.3363 223.8953 0028970 251.7911 108.0176 15.30946600198620
CZ-2C R/B               
1 28480U 04046B   26191.18991296  .00000050  00000+0  33450-4 0  9993
2 28480  98.1925  98.5309 0139855 152.1241 208.7525 14.27032158125975
ARIANE 5 R/B            
1 28499U 04049H   26190.96504801  .00000312  00000+0  41280-4 0  9994
2 28499  98.2737   4.1006 0082885 315.4598  43.9973 14.85475243163948
CZ-2D R/B               
1 28738U 05024B   26191.02468156  .00053547  00000+0  40523-3 0  9990
2 28738  97.3474 211.6350 0001436 209.4582 150.6601 15.72259089158928
ALOS (DAICHI)           
1 28931U 06002A   26190.82412380  .00000659  00000+0  11792-3 0  9999
2 28931  98.1335 146.3228 0000779  84.1885 275.9410 14.70095524 91428
